$$SOE
2459580.500000000, A.D. 2022-Jan-01 00:00:00.0000, -4.367551420053222E+08, -3.493826392722650E+08, 1.639303642155229E+07,
2459587.500000000, A.D. 2022-Jan-08 00:00:00.0000, -4.313141990148798E+08, -3.557620574340929E+08, 1.644796174298491E+07,
2459594.500000000, A.D. 2022-Jan-15 00:00:00.0000, -4.257536540832390E+08, -3.620427741536045E+08, 1.649832500745074E+07,
2459601.500000000, A.D. 2022-Jan-22 00:00:00.0000, -4.200749006851078E+08, -3.682229249062794E+08, 1.654410623924221E+07,
2459608.500000000, A.D. 2022-Jan-29 00:00:00.0000, -4.142793496734693E+08, -3.743006499807445E+08, 1.658528607293059E+07,
2459615.500000000, A.D. 2022-Feb-05 00:00:00.0000, -4.083684319020836E+08, -3.802740948820279E+08, 1.662184590216845E+07,
2459622.500000000, A.D. 2022-Feb-12 00:00:00.0000, -4.023435986937590E+08, -3.861414118187360E+08, 1.665376774410585E+07,
2459629.500000000, A.D. 2022-Feb-19 00:00:00.0000, -3.962063214797981E+08, -3.919007599054642E+08, 1.668103413450678E+07,
2459636.500000000, A.D. 2022-Feb-26 00:00:00.0000, -3.899580919220446E+08, -3.975503048034607E+08, 1.670362811461946E+07,
2459643.500000000, A.D. 2022-Mar-05 00:00:00.0000, -3.836004223582094E+08, -4.030882184166868E+08, 1.672153324452274E+07,
2459650.500000000, A.D. 2022-Mar-12 00:00:00.0000, -3.771348463488125E+08, -4.085126787093945E+08, 1.673473361694026E+07,
2459657.500000000, A.D. 2022-Mar-19 00:00:00.0000, -3.705629192550017E+08, -4.138218696174206E+08, 1.674321386701995E+07,
2459664.500000000, A.D. 2022-Mar-26 00:00:00.0000, -3.638862188250498E+08, -4.190139810590479E+08, 1.674695917528543E+07,
2459671.500000000, A.D. 2022-Apr-02 00:00:00.0000, -3.571063457215719E+08, -4.240872091010677E+08, 1.674595525272977E+07,
2459678.500000000, A.D. 2022-Apr-09 00:00:00.0000, -3.502249237169991E+08, -4.290397562752882E+08, 1.674018828326127E+07,
2459685.500000000, A.D. 2022-Apr-16 00:00:00.0000, -3.432435991998553E+08, -4.338698313919542E+08, 1.672964484399411E+07,
2459692.500000000, A.D. 2022-Apr-23 00:00:00.0000, -3.361640412606306E+08, -4.385756477665619E+08, 1.671431200823033E+07,
2459699.500000000, A.D. 2022-Apr-30 00:00:00.0000, -3.289879442274880E+08, -4.431554221062938E+08, 1.669417761906499E+07,
2459706.500000000, A.D. 2022-May-07 00:00:00.0000, -3.217170295897191E+08, -4.476073760310667E+08, 1.666923029134858E+07,
2459713.500000000, A.D. 2022-May-14 00:00:00.0000, -3.143530459207301E+08, -4.519297371921124E+08, 1.663945926290676E+07,
2459720.500000000, A.D. 2022-May-21 00:00:00.0000, -3.068977688323064E+08, -4.561207392295781E+08, 1.660485434341261E+07,
2459727.500000000, A.D. 2022-May-28 00:00:00.0000, -2.993530014388918E+08, -4.601786215278829E+08, 1.656540592650744E+07,
2459734.500000000, A.D. 2022-Jun-04 00:00:00.0000, -2.917205750543326E+08, -4.641016290819904E+08, 1.652110501419771E+07,
2459741.500000000, A.D. 2022-Jun-11 00:00:00.0000, -2.840023499759797E+08, -4.678880124732652E+08, 1.647194324045429E+07,
2459748.500000000, A.D. 2022-Jun-18 00:00:00.0000, -2.762002163173143E+08, -4.715360279428542E+08, 1.641791289162990E+07,
2459755.500000000, A.D. 2022-Jun-25 00:00:00.0000, -2.683160948598259E+08, -4.750439375970817E+08, 1.635900691842028E+07,
2459762.500000000, A.D. 2022-Jul-02 00:00:00.0000, -2.603519377904391E+08, -4.784100098118380E+08, 1.629521892187920E+07,
2459769.500000000, A.D. 2022-Jul-09 00:00:00.0000, -2.523097289345877E+08, -4.816325196601444E+08, 1.622654309234858E+07,
2459776.500000000, A.D. 2022-Jul-16 00:00:00.0000, -2.441914835404399E+08, -4.847097482811032E+08, 1.615297419506669E+07,
2459783.500000000, A.D. 2022-Jul-23 00:00:00.0000, -2.359992498126807E+08, -4.876399811132818E+08, 1.607450781064942E+07,
2459790.500000000, A.D. 2022-Jul-30 00:00:00.0000, -2.277351121113718E+08, -4.904215083475861E+08, 1.599114054881629E+07,
2459797.500000000, A.D. 2022-Aug-06 00:00:00.0000, -2.194011922170651E+08, -4.930526269535384E+08, 1.590286995847398E+07,
2459804.500000000, A.D. 2022-Aug-13 00:00:00.0000, -2.109996494857574E+08, -4.955316415265225E+08, 1.580969443510643E+07,
2459811.500000000, A.D. 2022-Aug-20 00:00:00.0000, -2.025326814632411E+08, -4.978568644608266E+08, 1.571161322860867E+07,
2459818.500000000, A.D. 2022-Aug-27 00:00:00.0000, -1.940025248905663E+08, -5.000266161763586E+08, 1.560862648619929E+07,
2459825.500000000, A.D. 2022-Sep-03 00:00:00.0000, -1.854114568523074E+08, -5.020392255110617E+08, 1.550073529881564E+07,
2459832.500000000, A.D. 2022-Sep-10 00:00:00.0000, -1.767617959770226E+08, -5.038930302569615E+08, 1.538794174480420E+07,
2459839.500000000, A.D. 2022-Sep-17 00:00:00.0000, -1.680559036600260E+08, -5.055863778438003E+08, 1.527024892813766E+07,
2459846.500000000, A.D. 2022-Sep-24 00:00:00.0000, -1.592961852477021E+08, -5.071176262235800E+08, 1.514766100149259E+07,
2459853.500000000, A.D. 2022-Oct-01 00:00:00.0000, -1.504850909430968E+08, -5.084851449808066E+08, 1.502018315032199E+07,
2459860.500000000, A.D. 2022-Oct-08 00:00:00.0000, -1.416251160251773E+08, -5.096873161488697E+08, 1.488782154313469E+07,
2459867.500000000, A.D. 2022-Oct-15 00:00:00.0000, -1.327188013131729E+08, -5.107225335356913E+08, 1.475058343128130E+07,
2459874.500000000, A.D. 2022-Oct-22 00:00:00.0000, -1.237687360567540E+08, -5.115892022445971E+08, 1.460847746048385E+07,
2459881.500000000, A.D. 2022-Oct-29 00:00:00.0000, -1.147775607529801E+08, -5.122857409865957E+08, 1.446151375275332E+07,
2459888.500000000, A.D. 2022-Nov-05 00:00:00.0000, -1.057479677898892E+08, -5.128105844465902E+08, 1.430970378996801E+07,
2459895.500000000, A.D. 2022-Nov-12 00:00:00.0000, -9.668270188120405E+07, -5.131621844396424E+08, 1.415306038281655E+07,
2459902.500000000, A.D. 2022-Nov-19 00:00:00.0000, -8.758456101105773E+07, -5.133390108139403E+08, 1.399159771303812E+07,
2459909.500000000, A.D. 2022-Nov-26 00:00:00.0000, -7.845639762561280E+07, -5.133395524997619E+08, 1.382533139232826E+07,
2459916.500000000, A.D. 2022-Dec-03 00:00:00.0000, -6.930111990391670E+07, -5.131623187176853E+08, 1.365427852159709E+07,
2459923.500000000, A.D. 2022-Dec-10 00:00:00.0000, -6.012169305996838E+07, -5.128058403294744E+08, 1.347845774777949E+07,
2459930.500000000, A.D. 2022-Dec-17 00:00:00.0000, -5.092114064825732E+07, -5.122686713598537E+08, 1.329788931380889E+07,
2459937.500000000, A.D. 2022-Dec-24 00:00:00.0000, -4.170254576049539E+07, -5.115493907594141E+08, 1.311259508639282E+07,
2459944.500000000, A.D. 2022-Dec-31 00:00:00.0000, -3.246905175354039E+07, -5.106466043061506E+08, 1.292259853774881E+07,
2459951.500000000, A.D. 2023-Jan-07 00:00:00.0000, -2.322386238386905E+07, -5.095589456881081E+08, 1.272792474891779E+07,
2459958.500000000, A.D. 2023-Jan-14 00:00:00.0000, -1.397024331369822E+07, -5.082850762742821E+08, 1.252860065586436E+07,
2459965.500000000, A.D. 2023-Jan-21 00:00:00.0000, -4.711525630779006E+06, -5.068236867494591E+08, 1.232465533829063E+07,
2459972.500000000, A.D. 2023-Jan-28 00:00:00.0000, 4.548892289779108E+06, -5.051735008121128E+08, 1.211611999879187E+07,
2459979.500000000, A.D. 2023-Feb-04 00:00:00.0000, 1.380754437685676E+07, -5.033332779120884E+08, 1.190302789906415E+07,
2459986.500000000, A.D. 2023-Feb-11 00:00:00.0000, 2.306089611644116E+07, -5.013018152258306E+08, 1.168541440219158E+07,
2459993.500000000, A.D. 2023-Feb-18 00:00:00.0000, 3.230534340752614E+07, -4.990779496961086E+08, 1.146331705969444E+07,
2460000.500000000, A.D. 2023-Feb-25 00:00:00.0000, 4.153721128835109E+07, -4.966605603016624E+08, 1.123677570615342E+07,
2460007.500000000, A.D. 2023-Mar-04 00:00:00.0000, 5.075275264045574E+07, -4.940485705414729E+08, 1.100583255369413E+07,
2460014.500000000, A.D. 2023-Mar-11 00:00:00.0000, 5.994814690512051E+07, -4.912409511366340E+08, 1.077053228386408E+07,
2460021.500000000, A.D. 2023-Mar-18 00:00:00.0000, 6.911949886588180E+07, -4.882367230030683E+08, 1.053092212868801E+07,
2460028.500000000, A.D. 2023-Mar-25 00:00:00.0000, 7.826283770751047E+07, -4.850349605464755E+08, 1.028705191861632E+07,
2460035.500000000, A.D. 2023-Apr-01 00:00:00.0000, 8.737411678325559E+07, -4.816347948905417E+08, 1.003897409084252E+07,
2460042.500000000, A.D. 2023-Apr-08 00:00:00.0000, 9.644921348237501E+07, -4.780354158176209E+08, 9.786743814779878E+06,
2460049.500000000, A.D. 2023-Apr-15 00:00:00.0000, 1.054839268686922E+08, -4.742360735312417E+08, 9.530419358756006E+06,
2460056.500000000, A.D. 2023-Apr-22 00:00:00.0000, 1.144739749082706E+08, -4.702360832948012E+08, 9.270062282478154E+06,
2460063.500000000, A.D. 2023-Apr-29 00:00:00.0000, 1.234149940313668E+08, -4.660348306968576E+08, 9.005737388412595E+06,
2460070.500000000, A.D. 2023-May-06 00:00:00.0000, 1.323025392788467E+08, -4.616317757657047E+08, 8.737512739020765E+06,
2460077.500000000, A.D. 2023-May-13 00:00:00.0000, 1.411320840669880E+08, -4.570264568299584E+08, 8.465459756253958E+06,
2460084.500000000, A.D. 2023-May-20 00:00:00.0000, 1.498990198161884E+08, -4.522184946188079E+08, 8.189653341400057E+06,
2460091.500000000, A.D. 2023-May-27 00:00:00.0000, 1.585986556491197E+08, -4.472075966334363E+08, 7.910171994737893E+06,
2460098.500000000, A.D. 2023-Jun-03 00:00:00.0000, 1.672262182286609E+08, -4.419935617650566E+08, 7.627097931352139E+06,
2460105.500000000, A.D. 2023-Jun-10 00:00:00.0000, 1.757768517730449E+08, -4.365762851739985E+08, 7.340517189228117E+06,
2460112.500000000, A.D. 2023-Jun-17 00:00:00.0000, 1.842456183521052E+08, -4.309557634901397E+08, 7.050519715960950E+06,
2460119.500000000, A.D. 2023-Jun-24 00:00:00.0000, 1.926274988005325E+08, -4.251321002792741E+08, 6.757199408774704E+06,
2460126.500000000, A.D. 2023-Jul-01 00:00:00.0000, 2.009173945176836E+08, -4.191055109475613E+08, 6.460654151919782E+06,
2460133.500000000, A.D. 2023-Jul-08 00:00:00.0000, 2.091101284962013E+08, -4.128763262613274E+08, 6.160986071782559E+06,
2460140.500000000, A.D. 2023-Jul-15 00:00:00.0000, 2.172004443188154E+08, -4.064449973088859E+08, 5.858301895020097E+06,
2460147.500000000, A.D. 2023-Jul-22 00:00:00.0000, 2.251830066618503E+08, -3.998121029334822E+08, 5.552713001548231E+06,
$$EOE